{
  "type": "FeatureCollection",
  "features": [
    {
      "type": "Feature",
      "properties": {
        "norad_id": 58647,
        "name": "TIANMU-1 13",
        "group": "weather",
        "lat": 39.32856243397162,
        "lon": -176.5490336293137,
        "alt_km": 494.1619102559516,
        "timestamp": "2025-12-03T13:52:09.208687+00:00",
        "meta_object_name": "TIANMU-1 13",
        "meta_object_id": "2023-205C",
        "meta_epoch": "2025-12-03T06:57:14.642784",
        "meta_mean_motion": 15.24333269,
        "meta_eccentricity": 0.00064097,
        "meta_inclination": 97.3628,
        "meta_ra_of_asc_node": 357.0863,
        "meta_arg_of_pericenter": 309.7826,
        "meta_mean_anomaly": 50.2847,
        "meta_ephemeris_type": 0,
        "meta_classification_type": "U",
        "meta_norad_cat_id": 58647,
        "meta_element_set_no": 999,
        "meta_rev_at_epoch": 10763,
        "meta_bstar": 0.00035723465,
        "meta_mean_motion_dot": 8.675e-05,
        "meta_mean_motion_ddot": 0,
        "tle_line1": "1 58647U 23205C   25337.28975281  .00008675  00000+0  35723-3 0  9992",
        "tle_line2": "2 58647  97.3628 357.0863 0006409 309.7826  50.2847 15.24333269107634"
      },
      "geometry": {
        "type": "Point",
        "coordinates": [
          -176.5490336293137,
          39.32856243397162
        ]
      }
    },
    {
      "type": "Feature",
      "properties": {
        "norad_id": 58648,
        "name": "TIANMU-1 14",
        "group": "weather",
        "lat": -51.1844000769108,
        "lon": 167.48574422259253,
        "alt_km": 499.0346925505128,
        "timestamp": "2025-12-03T13:52:09.208698+00:00",
        "meta_object_name": "TIANMU-1 14",
        "meta_object_id": "2023-205D",
        "meta_epoch": "2025-12-03T08:07:43.338720",
        "meta_mean_motion": 15.24319049,
        "meta_eccentricity": 0.00073048,
        "meta_inclination": 97.3559,
        "meta_ra_of_asc_node": 356.4918,
        "meta_arg_of_pericenter": 313.7637,
        "meta_mean_anomaly": 46.2996,
        "meta_ephemeris_type": 0,
        "meta_classification_type": "U",
        "meta_norad_cat_id": 58648,
        "meta_element_set_no": 999,
        "meta_rev_at_epoch": 10764,
        "meta_bstar": 0.00036652164,
        "meta_mean_motion_dot": 8.901e-05,
        "meta_mean_motion_ddot": 0,
        "tle_line1": "1 58648U 23205D   25337.33869605  .00008901  00000+0  36652-3 0  9995",
        "tle_line2": "2 58648  97.3559 356.4918 0007304 313.7637  46.2996 15.24319049107643"
      },
      "geometry": {
        "type": "Point",
        "coordinates": [
          167.48574422259253,
          -51.1844000769108
        ]
      }
    },
    {
      "type": "Feature",
      "properties": {
        "norad_id": 58660,
        "name": "TIANMU-1 19",
        "group": "weather",
        "lat": 17.71484147349018,
        "lon": 86.24294086575442,
        "alt_km": 483.2702297424157,
        "timestamp": "2025-12-03T13:52:09.208708+00:00",
        "meta_object_name": "TIANMU-1 19",
        "meta_object_id": "2023-208A",
        "meta_epoch": "2025-12-03T09:04:29.523936",
        "meta_mean_motion": 15.27574632,
        "meta_eccentricity": 0.00040907,
        "meta_inclination": 97.4393,
        "meta_ra_of_asc_node": 88.4358,
        "meta_arg_of_pericenter": 294.9411,
        "meta_mean_anomaly": 65.1403,
        "meta_ephemeris_type": 0,
        "meta_classification_type": "U",
        "meta_norad_cat_id": 58660,
        "meta_element_set_no": 999,
        "meta_rev_at_epoch": 10739,
        "meta_bstar": 0.00047178551,
        "meta_mean_motion_dot": 0.00012659,
        "meta_mean_motion_ddot": 0,
        "tle_line1": "1 58660U 23208A   25337.37811949  .00012659  00000+0  47179-3 0  9995",
        "tle_line2": "2 58660  97.4393  88.4358 0004090 294.9411  65.1403 15.27574632107392"
      },
      "geometry": {
        "type": "Point",
        "coordinates": [
          86.24294086575442,
          17.71484147349018
        ]
      }
    },
    {
      "type": "Feature",
      "properties": {
        "norad_id": 58661,
        "name": "TIANMU-1 20",
        "group": "weather",
        "lat": 52.31195554908847,
        "lon": 79.3445591464925,
        "alt_km": 476.072904175272,
        "timestamp": "2025-12-03T13:52:09.208718+00:00",
        "meta_object_name": "TIANMU-1 20",
        "meta_object_id": "2023-208B",
        "meta_epoch": "2025-12-03T07:21:17.525376",
        "meta_mean_motion": 15.28765418,
        "meta_eccentricity": 0.00064625,
        "meta_inclination": 97.433,
        "meta_ra_of_asc_node": 88.8027,
        "meta_arg_of_pericenter": 305.3038,
        "meta_mean_anomaly": 54.7597,
        "meta_ephemeris_type": 0,
        "meta_classification_type": "U",
        "meta_norad_cat_id": 58661,
        "meta_element_set_no": 999,
        "meta_rev_at_epoch": 10745,
        "meta_bstar": 0.00043578282,
        "meta_mean_motion_dot": 0.00012123,
        "meta_mean_motion_ddot": 0,
        "tle_line1": "1 58661U 23208B   25337.30645284  .00012123  00000+0  43578-3 0  9991",
        "tle_line2": "2 58661  97.4330  88.8027 0006462 305.3038  54.7597 15.28765418107458"
      },
      "geometry": {
        "type": "Point",
        "coordinates": [
          79.3445591464925,
          52.31195554908847
        ]
      }
    },
    {
      "type": "Feature",
      "properties": {
        "norad_id": 58662,
        "name": "TIANMU-1 21",
        "group": "weather",
        "lat": -24.15585839270438,
        "lon": 94.30030777763766,
        "alt_km": 474.4848482220141,
        "timestamp": "2025-12-03T13:52:09.208729+00:00",
        "meta_object_name": "TIANMU-1 21",
        "meta_object_id": "2023-208C",
        "meta_epoch": "2025-12-03T07:42:06.694848",
        "meta_mean_motion": 15.31229455,
        "meta_eccentricity": 0.0005973,
        "meta_inclination": 97.4377,
        "meta_ra_of_asc_node": 90.6837,
        "meta_arg_of_pericenter": 299.5412,
        "meta_mean_anomaly": 60.5233,
        "meta_ephemeris_type": 0,
        "meta_classification_type": "U",
        "meta_norad_cat_id": 58662,
        "meta_element_set_no": 999,
        "meta_rev_at_epoch": 10755,
        "meta_bstar": 0.00049168704,
        "meta_mean_motion_dot": 0.00014774,
        "meta_mean_motion_ddot": 0,
        "tle_line1": "1 58662U 23208C   25337.32091082  .00014774  00000+0  49169-3 0  9991",
        "tle_line2": "2 58662  97.4377  90.6837 0005973 299.5412  60.5233 15.31229455107559"
      },
      "geometry": {
        "type": "Point",
        "coordinates": [
          94.30030777763766,
          -24.15585839270438
        ]
      }
    },
    {
      "type": "Feature",
      "properties": {
        "norad_id": 58663,
        "name": "TIANMU-1 22",
        "group": "weather",
        "lat": 26.610520403049392,
        "lon": 84.94503212079559,
        "alt_km": 481.6664456782901,
        "timestamp": "2025-12-03T13:52:09.208740+00:00",
        "meta_object_name": "TIANMU-1 22",
        "meta_object_id": "2023-208D",
        "meta_epoch": "2025-12-03T07:27:45.470880",
        "meta_mean_motion": 15.27346878,
        "meta_eccentricity": 0.00030737,
        "meta_inclination": 97.4387,
        "meta_ra_of_asc_node": 88.432,
        "meta_arg_of_pericenter": 331.518,
        "meta_mean_anomaly": 28.589,
        "meta_ephemeris_type": 0,
        "meta_classification_type": "U",
        "meta_norad_cat_id": 58663,
        "meta_element_set_no": 999,
        "meta_rev_at_epoch": 10739,
        "meta_bstar": 0.00043827622,
        "meta_mean_motion_dot": 0.00011671,
        "meta_mean_motion_ddot": 0,
        "tle_line1": "1 58663U 23208D   25337.31094295  .00011671  00000+0  43828-3 0  9999",
        "tle_line2": "2 58663  97.4387  88.4320 0003073 331.5180  28.5890 15.27346878107390"
      },
      "geometry": {
        "type": "Point",
        "coordinates": [
          84.94503212079559,
          26.610520403049392
        ]
      }
    },
    {
      "type": "Feature",
      "properties": {
        "norad_id": 58700,
        "name": "TIANMU-1 15",
        "group": "weather",
        "lat": -70.34998969452674,
        "lon": -42.45607786954864,
        "alt_km": 499.1993810284057,
        "timestamp": "2025-12-03T13:52:09.208750+00:00",
        "meta_object_name": "TIANMU-1 15",
        "meta_object_id": "2024-004A",
        "meta_epoch": "2025-12-03T08:02:30.731424",
        "meta_mean_motion": 15.24476891,
        "meta_eccentricity": 0.00057879,
        "meta_inclination": 97.4625,
        "meta_ra_of_asc_node": 158.8388,
        "meta_arg_of_pericenter": 336.1464,
        "meta_mean_anomaly": 23.9504,
        "meta_ephemeris_type": 0,
        "meta_classification_type": "U",
        "meta_norad_cat_id": 58700,
        "meta_element_set_no": 999,
        "meta_rev_at_epoch": 10591,
        "meta_bstar": 0.00039069392,
        "meta_mean_motion_dot": 9.534e-05,
        "meta_mean_motion_ddot": 0,
        "tle_line1": "1 58700U 24004A   25337.33507791  .00009534  00000+0  39069-3 0  9995",
        "tle_line2": "2 58700  97.4625 158.8388 0005787 336.1464  23.9504 15.24476891105916"
      },
      "geometry": {
        "type": "Point",
        "coordinates": [
          -42.45607786954864,
          -70.34998969452674
        ]
      }
    }
  ]
}